SMAP
1 40376U 15003A   18094.39708658  .00000009  00000-0  10862-4 0  9997
2 40376  98.1233 102.8055 0001411  48.0439 312.0893 14.63376715169481
